NORAD_CAT_ID,OBJECT_NAME,OBJECT_TYPE,EPOCH,MEAN_MOTION,ECCENTRICITY,INCLINATION,RA_OF_ASC_NODE,ARG_OF_PERICENTER,MEAN_ANOMALY,BSTAR,MEAN_MOTION_DOT,MEAN_MOTION_DDOT,TLE_LINE0,TLE_LINE1,TLE_LINE2,SEMIMAJOR_AXIS,PERIOD,APOGEE,PERIGEE,DECAYED
52993.0,STARLINK-4264,PAYLOAD,2024-08-20 02:04:36,15.08834738,0.0001439,53.2154,117.6993,114.6962,245.418,-1.0253e-05,-4.51e-06,0.0,0 STARLINK-4264,1 52993U 22076H   24233.08653731 -.00000451  00000-0 -10253-4 0  9999,2 52993  53.2154 117.6993 0001439 114.6962 245.4180 15.08834738117776,6917.896,95.438,540.757,538.766,0.0
52993.0,STARLINK-4264,PAYLOAD,2024-08-21 01:55:23,15.08855922,0.0001645,53.2151,113.2398,116.6441,243.472,0.00077484,0.0001207,0.0,0 STARLINK-4264,1 52993U 22076H   24234.08013529  .00012070  00000-0  77484-3 0  9991,2 52993  53.2151 113.2398 0001645 116.6441 243.4720 15.08855922117920,6917.832,95.437,540.835,538.559,0.0
52993.0,STARLINK-4264,PAYLOAD,2024-08-21 19:24:38,15.08845332,0.0001922,53.215,109.9629,128.8882,231.2282,0.00020709,3.01e-05,0.0,0 STARLINK-4264,1 52993U 22076H   24234.80877761  .00003010  00000-0  20709-3 0  9999,2 52993  53.2150 109.9629 0001922 128.8882 231.2282 15.08845332117562,6917.864,95.437,541.059,538.399,0.0
52993.0,STARLINK-4264,PAYLOAD,2024-08-21 22:35:24,15.08843605,0.0001378,53.2153,109.3741,111.8283,248.2856,0.00021364,3.114e-05,0.0,0 STARLINK-4264,1 52993U 22076H   24234.94125893  .00003114  00000-0  21364-3 0  9999,2 52993  53.2153 109.3741 0001378 111.8283 248.2856 15.08843605118057,6917.869,95.437,540.688,538.781,0.0
